{
  "type": "FeatureCollection",
  "features": [
    {
      "type": "Feature",
      "properties": {
        "norad_id": 41948,
        "name": "CARTOSAT-2D",
        "group": "resource",
        "lat": 43.10474720545271,
        "lon": 49.76437787642896,
        "alt_km": 503.7172946868841,
        "timestamp": "2025-12-25T11:37:44.079181+00:00",
        "meta_object_name": "CARTOSAT-2D",
        "meta_object_id": "2017-008A",
        "meta_epoch": "2025-12-25T03:32:01.589568",
        "meta_mean_motion": 15.19185361,
        "meta_eccentricity": 0.0005437,
        "meta_inclination": 97.437,
        "meta_ra_of_asc_node": 56.4547,
        "meta_arg_of_pericenter": 118.3655,
        "meta_mean_anomaly": 241.8128,
        "meta_ephemeris_type": 0,
        "meta_classification_type": "U",
        "meta_norad_cat_id": 41948,
        "meta_element_set_no": 999,
        "meta_rev_at_epoch": 49115,
        "meta_bstar": 0.00016319,
        "meta_mean_motion_dot": 3.366e-05,
        "meta_mean_motion_ddot": 0,
        "tle_line1": "1 41948U 17008A   25359.14724062  .00003366  00000+0  16319-3 0  9992",
        "tle_line2": "2 41948  97.4370  56.4547 0005437 118.3655 241.8128 15.19185361491153"
      },
      "geometry": {
        "type": "Point",
        "coordinates": [
          49.76437787642896,
          43.10474720545271
        ]
      }
    },
    {
      "type": "Feature",
      "properties": {
        "norad_id": 42063,
        "name": "SENTINEL-2B",
        "group": "resource",
        "lat": -80.4125444141552,
        "lon": 134.9710881242986,
        "alt_km": 797.1783903500454,
        "timestamp": "2025-12-25T11:37:44.079191+00:00",
        "meta_object_name": "SENTINEL-2B",
        "meta_object_id": "2017-013A",
        "meta_epoch": "2025-12-25T05:18:56.499264",
        "meta_mean_motion": 14.30815179,
        "meta_eccentricity": 0.0001174,
        "meta_inclination": 98.5699,
        "meta_ra_of_asc_node": 71.4916,
        "meta_arg_of_pericenter": 91.2223,
        "meta_mean_anomaly": 268.9095,
        "meta_ephemeris_type": 0,
        "meta_classification_type": "U",
        "meta_norad_cat_id": 42063,
        "meta_element_set_no": 999,
        "meta_rev_at_epoch": 45976,
        "meta_bstar": 9.0141e-06,
        "meta_mean_motion_dot": -2e-07,
        "meta_mean_motion_ddot": 0,
        "tle_line1": "1 42063U 17013A   25359.22148726 -.00000020  00000+0  90141-5 0  9995",
        "tle_line2": "2 42063  98.5699  71.4916 0001174  91.2223 268.9095 14.30815179459762"
      },
      "geometry": {
        "type": "Point",
        "coordinates": [
          134.9710881242986,
          -80.4125444141552
        ]
      }
    },
    {
      "type": "Feature",
      "properties": {
        "norad_id": 42767,
        "name": "CARTOSAT-2E",
        "group": "resource",
        "lat": -46.58232819539567,
        "lon": 64.85600559552411,
        "alt_km": 516.4545812434335,
        "timestamp": "2025-12-25T11:37:44.079201+00:00",
        "meta_object_name": "CARTOSAT-2E",
        "meta_object_id": "2017-036C",
        "meta_epoch": "2025-12-25T03:55:55.235136",
        "meta_mean_motion": 15.19192496,
        "meta_eccentricity": 0.0002595,
        "meta_inclination": 97.4537,
        "meta_ra_of_asc_node": 56.5866,
        "meta_arg_of_pericenter": 175.5395,
        "meta_mean_anomaly": 184.5863,
        "meta_ephemeris_type": 0,
        "meta_classification_type": "U",
        "meta_norad_cat_id": 42767,
        "meta_element_set_no": 999,
        "meta_rev_at_epoch": 47172,
        "meta_bstar": 0.00011911,
        "meta_mean_motion_dot": 2.438e-05,
        "meta_mean_motion_ddot": 0,
        "tle_line1": "1 42767U 17036C   25359.16383374  .00002438  00000+0  11911-3 0  9994",
        "tle_line2": "2 42767  97.4537  56.5866 0002595 175.5395 184.5863 15.19192496471728"
      },
      "geometry": {
        "type": "Point",
        "coordinates": [
          64.85600559552411,
          -46.58232819539567
        ]
      }
    },
    {
      "type": "Feature",
      "properties": {
        "norad_id": 42920,
        "name": "FORMOSAT-5",
        "group": "resource",
        "lat": 65.3987475516268,
        "lon": -87.99355805470398,
        "alt_km": 722.4586930284477,
        "timestamp": "2025-12-25T11:37:44.079211+00:00",
        "meta_object_name": "FORMOSAT-5",
        "meta_object_id": "2017-049A",
        "meta_epoch": "2025-12-25T04:29:13.243776",
        "meta_mean_motion": 14.50767525,
        "meta_eccentricity": 0.0009843,
        "meta_inclination": 98.2438,
        "meta_ra_of_asc_node": 73.2551,
        "meta_arg_of_pericenter": 258.8782,
        "meta_mean_anomaly": 101.1306,
        "meta_ephemeris_type": 0,
        "meta_classification_type": "U",
        "meta_norad_cat_id": 42920,
        "meta_element_set_no": 999,
        "meta_rev_at_epoch": 44144,
        "meta_bstar": 7.0023e-05,
        "meta_mean_motion_dot": 2.32e-06,
        "meta_mean_motion_ddot": 0,
        "tle_line1": "1 42920U 17049A   25359.18695884  .00000232  00000+0  70023-4 0  9993",
        "tle_line2": "2 42920  98.2438  73.2551 0009843 258.8782 101.1306 14.50767525441441"
      },
      "geometry": {
        "type": "Point",
        "coordinates": [
          -87.99355805470398,
          65.3987475516268
        ]
      }
    },
    {
      "type": "Feature",
      "properties": {
        "norad_id": 42969,
        "name": "SENTINEL-5P",
        "group": "resource",
        "lat": 25.057185636129603,
        "lon": 122.1002037647813,
        "alt_km": 825.8421599993017,
        "timestamp": "2025-12-25T11:37:44.079222+00:00",
        "meta_object_name": "SENTINEL-5P",
        "meta_object_id": "2017-064A",
        "meta_epoch": "2025-12-25T02:26:42.531360",
        "meta_mean_motion": 14.19520507,
        "meta_eccentricity": 0.0001061,
        "meta_inclination": 98.7802,
        "meta_ra_of_asc_node": 297.5773,
        "meta_arg_of_pericenter": 91.0415,
        "meta_mean_anomaly": 269.0882,
        "meta_ephemeris_type": 0,
        "meta_classification_type": "U",
        "meta_norad_cat_id": 42969,
        "meta_element_set_no": 999,
        "meta_rev_at_epoch": 42486,
        "meta_bstar": 6.4598e-05,
        "meta_mean_motion_dot": 9.2e-07,
        "meta_mean_motion_ddot": 0,
        "tle_line1": "1 42969U 17064A   25359.10188115  .00000092  00000+0  64598-4 0  9993",
        "tle_line2": "2 42969  98.7802 297.5773 0001061  91.0415 269.0882 14.19520507424867"
      },
      "geometry": {
        "type": "Point",
        "coordinates": [
          122.1002037647813,
          25.057185636129603
        ]
      }
    },
    {
      "type": "Feature",
      "properties": {
        "norad_id": 42987,
        "name": "SKYSAT-C11",
        "group": "resource",
        "lat": 19.64653795069003,
        "lon": 134.63108050540953,
        "alt_km": 422.6399770273274,
        "timestamp": "2025-12-25T11:37:44.079232+00:00",
        "meta_object_name": "SKYSAT-C11",
        "meta_object_id": "2017-068A",
        "meta_epoch": "2025-12-24T21:34:50.650176",
        "meta_mean_motion": 15.4796518,
        "meta_eccentricity": 0.0001116,
        "meta_inclination": 97.4153,
        "meta_ra_of_asc_node": 136.6958,
        "meta_arg_of_pericenter": 96.4287,
        "meta_mean_anomaly": 263.709,
        "meta_ephemeris_type": 0,
        "meta_classification_type": "U",
        "meta_norad_cat_id": 42987,
        "meta_element_set_no": 999,
        "meta_rev_at_epoch": 45619,
        "meta_bstar": 0.00045752,
        "meta_mean_motion_dot": 0.00023827,
        "meta_mean_motion_ddot": 0,
        "tle_line1": "1 42987U 17068A   25358.89919734  .00023827  00000+0  45752-3 0  9992",
        "tle_line2": "2 42987  97.4153 136.6958 0001116  96.4287 263.7090 15.47965180456192"
      },
      "geometry": {
        "type": "Point",
        "coordinates": [
          134.63108050540953,
          19.64653795069003
        ]
      }
    },
    {
      "type": "Feature",
      "properties": {
        "norad_id": 42988,
        "name": "SKYSAT-C10",
        "group": "resource",
        "lat": 70.35437056578071,
        "lon": -28.193650113642345,
        "alt_km": 460.39101098327046,
        "timestamp": "2025-12-25T11:37:44.079242+00:00",
        "meta_object_name": "SKYSAT-C10",
        "meta_object_id": "2017-068B",
        "meta_epoch": "2025-12-24T19:29:00.783168",
        "meta_mean_motion": 15.32071049,
        "meta_eccentricity": 0.00043105,
        "meta_inclination": 97.4272,
        "meta_ra_of_asc_node": 129.6977,
        "meta_arg_of_pericenter": 75.127,
        "meta_mean_anomaly": 285.0448,
        "meta_ephemeris_type": 0,
        "meta_classification_type": "U",
        "meta_norad_cat_id": 42988,
        "meta_element_set_no": 999,
        "meta_rev_at_epoch": 45564,
        "meta_bstar": 0.00040464637,
        "meta_mean_motion_dot": 0.00012461,
        "meta_mean_motion_ddot": 0,
        "tle_line1": "1 42988U 17068B   25358.81181462  .00012461  00000+0  40465-3 0  9992",
        "tle_line2": "2 42988  97.4272 129.6977 0004310  75.1270 285.0448 15.32071049455642"
      },
      "geometry": {
        "type": "Point",
        "coordinates": [
          -28.193650113642345,
          70.35437056578071
        ]
      }
    }
  ]
}